[{"OBJECT_NAME":"STARLINK-30197","OBJECT_ID":"2023-105P","EPOCH":"2026-03-09T22:00:01.999584","MEAN_MOTION":15.26481001,"ECCENTRICITY":8.365e-5,"INCLINATION":42.9996,"RA_OF_ASC_NODE":258.3365,"ARG_OF_PERICENTER":285.5306,"MEAN_ANOMALY":275.8435,"EPHEMERIS_TYPE":0,"CLASSIFICATION_TYPE":"U","NORAD_CAT_ID":57443,"ELEMENT_SET_NO":999,"REV_AT_EPOCH":573,"BSTAR":0.0055921327,"MEAN_MOTION_DOT":0.00151669,"MEAN_MOTION_DDOT":0},{"OBJECT_NAME":"CZ-4C DEB","OBJECT_ID":"2007-055C","EPOCH":"2026-03-09T22:46:15.652128","MEAN_MOTION":15.30523578,"ECCENTRICITY":0.00469709,"INCLINATION":97.8668,"RA_OF_ASC_NODE":247.2248,"ARG_OF_PERICENTER":277.363,"MEAN_ANOMALY":82.2273,"EPHEMERIS_TYPE":0,"CLASSIFICATION_TYPE":"U","NORAD_CAT_ID":35248,"ELEMENT_SET_NO":999,"REV_AT_EPOCH":97353,"BSTAR":0.0018809895,"MEAN_MOTION_DOT":0.000577,"MEAN_MOTION_DDOT":0}]
